{"type": "FeatureCollection", "features": [{"type": "Feature", "properties": {"norad_id": 28054, "name": "DMSP 5D-3 F16 (USA 172)", "group": "weather", "lat": -13.974538750622303, "lon": -175.29767957328636, "alt_km": 850.9976507065849, "timestamp": "2025-12-15T11:38:36.800216+00:00", "meta": {"OBJECT_NAME": "DMSP 5D-3 F16 (USA 172)", "OBJECT_ID": "2003-048A", "EPOCH": "2025-12-14T23:43:02.646048", "MEAN_MOTION": 14.14424983, "ECCENTRICITY": 0.00064287, "INCLINATION": 99.0045, "RA_OF_ASC_NODE": 6.463, "ARG_OF_PERICENTER": 313.7921, "MEAN_ANOMALY": 231.4171, "EPHEMERIS_TYPE": 0, "CLASSIFICATION_TYPE": "U", "NORAD_CAT_ID": 28054, "ELEMENT_SET_NO": 999, "REV_AT_EPOCH": 14344, "BSTAR": 0.00010245256, "MEAN_MOTION_DOT": 1.51e-06, "MEAN_MOTION_DDOT": 0}, "tle": {"line1": "1 28054U 03048A   25348.98822507  .00000151  00000+0  10245-3 0  9998", "line2": "2 28054  99.0045   6.4630 0006428 313.7921 231.4171 14.14424983143448"}}, "geometry": {"type": "Point", "coordinates": [-175.29767957328636, -13.974538750622303]}}, {"type": "Feature", "properties": {"norad_id": 28912, "name": "METEOSAT-9 (MSG-2)", "group": "weather", "lat": -8.353814333915436, "lon": -55.432434966301855, "alt_km": 35777.73313440459, "timestamp": "2025-12-15T11:38:36.800268+00:00", "meta": {"OBJECT_NAME": "METEOSAT-9 (MSG-2)", "OBJECT_ID": "2005-049B", "EPOCH": "2025-12-14T20:28:58.105920", "MEAN_MOTION": 1.00277785, "ECCENTRICITY": 0.00034635, "INCLINATION": 8.9443, "RA_OF_ASC_NODE": 55.9576, "ARG_OF_PERICENTER": 190.3474, "MEAN_ANOMALY": 190.418, "EPHEMERIS_TYPE": 0, "CLASSIFICATION_TYPE": "U", "NORAD_CAT_ID": 28912, "ELEMENT_SET_NO": 999, "REV_AT_EPOCH": 515, "BSTAR": 0, "MEAN_MOTION_DOT": 1.37e-06, "MEAN_MOTION_DDOT": 0}, "tle": {"line1": "1 28912U 05049B   25348.85345030  .00000137  00000+0  00000+0 0  9999", "line2": "2 28912   8.9443  55.9576 0003463 190.3474 190.4180  1.00277785  5154"}}, "geometry": {"type": "Point", "coordinates": [-55.432434966301855, -8.353814333915436]}}, {"type": "Feature", "properties": {"norad_id": 29522, "name": "DMSP 5D-3 F17 (USA 191)", "group": "weather", "lat": 40.14351490956195, "lon": -177.72899915073432, "alt_km": 837.8942620041462, "timestamp": "2025-12-15T11:38:36.800285+00:00", "meta": {"OBJECT_NAME": "DMSP 5D-3 F17 (USA 191)", "OBJECT_ID": "2006-050A", "EPOCH": "2025-12-14T23:06:24.955776", "MEAN_MOTION": 14.14920568, "ECCENTRICITY": 0.00094926, "INCLINATION": 98.7393, "RA_OF_ASC_NODE": 354.3056, "ARG_OF_PERICENTER": 218.0598, "MEAN_ANOMALY": 141.9906, "EPHEMERIS_TYPE": 0, "CLASSIFICATION_TYPE": "U", "NORAD_CAT_ID": 29522, "ELEMENT_SET_NO": 999, "REV_AT_EPOCH": 98636, "BSTAR": 0.00012114838, "MEAN_MOTION_DOT": 1.91e-06, "MEAN_MOTION_DDOT": 0}, "tle": {"line1": "1 29522U 06050A   25348.96278884  .00000191  00000+0  12115-3 0  9998", "line2": "2 29522  98.7393 354.3056 0009492 218.0598 141.9906 14.14920568986366"}}, "geometry": {"type": "Point", "coordinates": [-177.72899915073432, 40.14351490956195]}}, {"type": "Feature", "properties": {"norad_id": 32958, "name": "FENGYUN 3A", "group": "weather", "lat": -75.73010412082428, "lon": 72.09012138236554, "alt_km": 830.1894084275409, "timestamp": "2025-12-15T11:38:36.800300+00:00", "meta": {"OBJECT_NAME": "FENGYUN 3A", "OBJECT_ID": "2008-026A", "EPOCH": "2025-12-14T20:53:41.662176", "MEAN_MOTION": 14.19515277, "ECCENTRICITY": 0.00078306, "INCLINATION": 98.6699, "RA_OF_ASC_NODE": 288.3525, "ARG_OF_PERICENTER": 303.7221, "MEAN_ANOMALY": 56.3208, "EPHEMERIS_TYPE": 0, "CLASSIFICATION_TYPE": "U", "NORAD_CAT_ID": 32958, "ELEMENT_SET_NO": 999, "REV_AT_EPOCH": 90925, "BSTAR": 7.8981153e-05, "MEAN_MOTION_DOT": 1.23e-06, "MEAN_MOTION_DDOT": 0}, "tle": {"line1": "1 32958U 08026A   25348.87062109  .00000123  00000+0  78981-4 0  9990", "line2": "2 32958  98.6699 288.3525 0007830 303.7221  56.3208 14.19515277909256"}}, "geometry": {"type": "Point", "coordinates": [72.09012138236554, -75.73010412082428]}}, {"type": "Feature", "properties": {"norad_id": 35491, "name": "GOES 14", "group": "weather", "lat": 1.0737059315752762, "lon": 147.53094470160968, "alt_km": 35835.919862482006, "timestamp": "2025-12-15T11:38:36.800314+00:00", "meta": {"OBJECT_NAME": "GOES 14", "OBJECT_ID": "2009-033A", "EPOCH": "2025-12-14T21:27:00.049248", "MEAN_MOTION": 1.00096392, "ECCENTRICITY": 6.472e-05, "INCLINATION": 1.2083, "RA_OF_ASC_NODE": 85.3763, "ARG_OF_PERICENTER": 167.9014, "MEAN_ANOMALY": 41.1621, "EPHEMERIS_TYPE": 0, "CLASSIFICATION_TYPE": "U", "NORAD_CAT_ID": 35491, "ELEMENT_SET_NO": 999, "REV_AT_EPOCH": 474, "BSTAR": 0, "MEAN_MOTION_DOT": -4e-08, "MEAN_MOTION_DDOT": 0}, "tle": {"line1": "1 35491U 09033A   25348.89375057 -.00000004  00000+0  00000+0 0  9996", "line2": "2 35491   1.2083  85.3763 0000647 167.9014  41.1621  1.00096392  4745"}}, "geometry": {"type": "Point", "coordinates": [147.53094470160968, 1.0737059315752762]}}, {"type": "Feature", "properties": {"norad_id": 35951, "name": "DMSP 5D-3 F18 (USA 210)", "group": "weather", "lat": 4.974837187450459, "lon": -34.90796227366454, "alt_km": 839.7604380239036, "timestamp": "2025-12-15T11:38:36.800327+00:00", "meta": {"OBJECT_NAME": "DMSP 5D-3 F18 (USA 210)", "OBJECT_ID": "2009-057A", "EPOCH": "2025-12-14T22:02:28.270464", "MEAN_MOTION": 14.14770329, "ECCENTRICITY": 0.00120255, "INCLINATION": 98.8836, "RA_OF_ASC_NODE": 325.3082, "ARG_OF_PERICENTER": 56.9928, "MEAN_ANOMALY": 303.2399, "EPHEMERIS_TYPE": 0, "CLASSIFICATION_TYPE": "U", "NORAD_CAT_ID": 35951, "ELEMENT_SET_NO": 999, "REV_AT_EPOCH": 83353, "BSTAR": 0.00016798379, "MEAN_MOTION_DOT": 2.79e-06, "MEAN_MOTION_DDOT": 0}, "tle": {"line1": "1 35951U 09057A   25348.91838276  .00000279  00000+0  16798-3 0  9991", "line2": "2 35951  98.8836 325.3082 0012025  56.9928 303.2399 14.14770329833538"}}, "geometry": {"type": "Point", "coordinates": [-34.90796227366454, 4.974837187450459]}}, {"type": "Feature", "properties": {"norad_id": 36411, "name": "EWS-G2 (GOES 15)", "group": "weather", "lat": -0.6736421942551148, "lon": -39.52644509355503, "alt_km": 35774.245847307255, "timestamp": "2025-12-15T11:38:36.800340+00:00", "meta": {"OBJECT_NAME": "EWS-G2 (GOES 15)", "OBJECT_ID": "2010-008A", "EPOCH": "2025-12-14T22:16:17.827104", "MEAN_MOTION": 1.00270327, "ECCENTRICITY": 0.00055943, "INCLINATION": 0.8193, "RA_OF_ASC_NODE": 86.0768, "ARG_OF_PERICENTER": 175.6576, "MEAN_ANOMALY": 217.5708, "EPHEMERIS_TYPE": 0, "CLASSIFICATION_TYPE": "U", "NORAD_CAT_ID": 36411, "ELEMENT_SET_NO": 999, "REV_AT_EPOCH": 5779, "BSTAR": 0, "MEAN_MOTION_DOT": 5.8e-07, "MEAN_MOTION_DDOT": 0}, "tle": {"line1": "1 36411U 10008A   25348.92798411  .00000058  00000+0  00000+0 0  9998", "line2": "2 36411   0.8193  86.0768 0005594 175.6576 217.5708  1.00270327 57793"}}, "geometry": {"type": "Point", "coordinates": [-39.52644509355503, -0.6736421942551148]}}, {"type": "Feature", "properties": {"norad_id": 36744, "name": "COMS 1", "group": "weather", "lat": -3.3500249580621797, "lon": 27.295524508874443, "alt_km": 35788.1380792366, "timestamp": "2025-12-15T11:38:36.800354+00:00", "meta": {"OBJECT_NAME": "COMS 1", "OBJECT_ID": "2010-032A", "EPOCH": "2025-12-14T17:27:08.021952", "MEAN_MOTION": 1.00272227, "ECCENTRICITY": 8.196e-05, "INCLINATION": 4.3456, "RA_OF_ASC_NODE": 77.9774, "ARG_OF_PERICENTER": 191.33, "MEAN_ANOMALY": 204.2869, "EPHEMERIS_TYPE": 0, "CLASSIFICATION_TYPE": "U", "NORAD_CAT_ID": 36744, "ELEMENT_SET_NO": 999, "REV_AT_EPOCH": 4924, "BSTAR": 0, "MEAN_MOTION_DOT": -3.27e-06, "MEAN_MOTION_DDOT": 0}, "tle": {"line1": "1 36744U 10032A   25348.72717618 -.00000327  00000+0  00000+0 0  9992", "line2": "2 36744   4.3456  77.9774 0000819 191.3300 204.2869  1.00272227 49247"}}, "geometry": {"type": "Point", "coordinates": [27.295524508874443, -3.3500249580621797]}}, {"type": "Feature", "properties": {"norad_id": 37214, "name": "FENGYUN 3B", "group": "weather", "lat": -29.748622682690215, "lon": 34.673199946515524, "alt_km": 833.9899087269805, "timestamp": "2025-12-15T11:38:36.800368+00:00", "meta": {"OBJECT_NAME": "FENGYUN 3B", "OBJECT_ID": "2010-059A", "EPOCH": "2025-12-14T22:40:29.470656", "MEAN_MOTION": 14.14789374, "ECCENTRICITY": 0.002198, "INCLINATION": 98.9912, "RA_OF_ASC_NODE": 28.9375, "ARG_OF_PERICENTER": 351.6996, "MEAN_ANOMALY": 107.6696, "EPHEMERIS_TYPE": 0, "CLASSIFICATION_TYPE": "U", "NORAD_CAT_ID": 37214, "ELEMENT_SET_NO": 999, "REV_AT_EPOCH": 78137, "BSTAR": -5.5182326e-05, "MEAN_MOTION_DOT": -1.52e-06, "MEAN_MOTION_DDOT": 0}, "tle": {"line1": "1 37214U 10059A   25348.94478554 -.00000152  00000+0 -55182-4 0  9994", "line2": "2 37214  98.9912  28.9375 0021980 351.6996 107.6696 14.14789374781379"}}, "geometry": {"type": "Point", "coordinates": [34.673199946515524, -29.748622682690215]}}, {"type": "Feature", "properties": {"norad_id": 37849, "name": "SUOMI NPP", "group": "weather", "lat": -37.027487179357024, "lon": 100.10926945095903, "alt_km": 833.675662272818, "timestamp": "2025-12-15T11:38:36.800379+00:00", "meta": {"OBJECT_NAME": "SUOMI NPP", "OBJECT_ID": "2011-061A", "EPOCH": "2025-12-14T22:46:51.149568", "MEAN_MOTION": 14.19514817, "ECCENTRICITY": 0.00023199, "INCLINATION": 98.7775, "RA_OF_ASC_NODE": 286.2709, "ARG_OF_PERICENTER": 116.1622, "MEAN_ANOMALY": 243.9793, "EPHEMERIS_TYPE": 0, "CLASSIFICATION_TYPE": "U", "NORAD_CAT_ID": 37849, "ELEMENT_SET_NO": 999, "REV_AT_EPOCH": 73230, "BSTAR": 6.8752164e-05, "MEAN_MOTION_DOT": 1.01e-06, "MEAN_MOTION_DDOT": 0}, "tle": {"line1": "1 37849U 11061A   25348.94920312  .00000101  00000+0  68752-4 0  9995", "line2": "2 37849  98.7775 286.2709 0002319 116.1622 243.9793 14.19514817732307"}}, "geometry": {"type": "Point", "coordinates": [100.10926945095903, -37.027487179357024]}}]}